[{"OBJECT_NAME":"STARLINK-33892","OBJECT_ID":"2025-091J","EPOCH":"2026-03-09T23:03:27.288864","MEAN_MOTION":15.27657143,"ECCENTRICITY":0.00032948,"INCLINATION":42.9994,"RA_OF_ASC_NODE":50.9928,"ARG_OF_PERICENTER":282.5447,"MEAN_ANOMALY":77.5036,"EPHEMERIS_TYPE":0,"CLASSIFICATION_TYPE":"U","NORAD_CAT_ID":63783,"ELEMENT_SET_NO":999,"REV_AT_EPOCH":4894,"BSTAR":0.0015133946,"MEAN_MOTION_DOT":0.00041722,"MEAN_MOTION_DDOT":0},{"OBJECT_NAME":"CZ-6A DEB","OBJECT_ID":"2022-151AJB","EPOCH":"2026-02-27T14:06:27.470880","MEAN_MOTION":15.13235807,"ECCENTRICITY":0.00651829,"INCLINATION":98.7617,"RA_OF_ASC_NODE":191.4844,"ARG_OF_PERICENTER":85.1472,"MEAN_ANOMALY":275.7194,"EPHEMERIS_TYPE":0,"CLASSIFICATION_TYPE":"U","NORAD_CAT_ID":58433,"ELEMENT_SET_NO":999,"REV_AT_EPOCH":15167,"BSTAR":0.0027921214,"MEAN_MOTION_DOT":0.00052525,"MEAN_MOTION_DDOT":0}]
